"city_id","address_id","address","address2","district","postal_code","phone","last_update","city","country_id","country"
300,1,"47 MySakila Drive",NULL,"Alberta","","","2006-02-15 09:45:30","Lethbridge",20,"Canada"
576,2,"28 MySQL Boulevard",NULL,"QLD","","","2006-02-15 09:45:30","Woodridge",8,"Australia"
300,3,"23 Workhaven Lane",NULL,"Alberta","","14033335568","2006-02-15 09:45:30","Lethbridge",20,"Canada"
576,4,"1411 Lillydale Drive",NULL,"QLD","","6172235589","2006-02-15 09:45:30","Woodridge",8,"Australia"
463,5,"1913 Hanoi Way","","Nagasaki","35200","28303384290","2006-02-15 09:45:30","Sasebo",50,"Japan"
449,6,"1121 Loja Avenue","","California","17886","838635286649","2006-02-15 09:45:30","San Bernardino",103,"United States"
38,7,"692 Joliet Street","","Attika","83579","448477190408","2006-02-15 09:45:30","Athenai",39,"Greece"
349,8,"1566 Inegl Manor","","Mandalay","53561","705814003527","2006-02-15 09:45:30","Myingyan",64,"Myanmar"
361,9,"53 Idfu Parkway","","Nantou","42399","10655648674","2006-02-15 09:45:30","Nantou",92,"Taiwan"
295,10,"1795 Santiago de Compostela Way","","Texas","18743","860452626434","2006-02-15 09:45:30","Laredo",103,"United States"
280,11,"900 Santiago de Compostela Parkway","","Central Serbia","93896","716571220373","2006-02-15 09:45:30","Kragujevac",108,"Yugoslavia"
200,12,"478 Joliet Way","","Hamilton","77948","657282285970","2006-02-15 09:45:30","Hamilton",68,"New Zealand"
329,13,"613 Korolev Drive","","Masqat","45844","380657522649","2006-02-15 09:45:30","Masqat",71,"Oman"
162,14,"1531 Sal Drive","","Esfahan","53628","648856936185","2006-02-15 09:45:30","Esfahan",46,"Iran"
440,15,"1542 Tarlac Parkway","","Kanagawa","1027","635297277345","2006-02-15 09:45:30","Sagamihara",50,"Japan"
582,16,"808 Bhopal Manor","","Haryana","10672","465887807014","2006-02-15 09:45:30","Yamuna Nagar",44,"India"
384,17,"270 Amroha Parkway","","Osmaniye","29610","695479687538","2006-02-15 09:45:30","Osmaniye",97,"Turkey"
120,18,"770 Bydgoszcz Avenue","","California","16266","517338314235","2006-02-15 09:45:30","Citrus Heights",103,"United States"
76,19,"419 Iligan Lane","","Madhya Pradesh","72878","990911107354","2006-02-15 09:45:30","Bhopal",44,"India"
495,20,"360 Toulouse Parkway","","England","54308","949312333307","2006-02-15 09:45:30","Southend-on-Sea",102,"United Kingdom"
156,21,"270 Toulon Boulevard","","Kalmykia","81766","407752414682","2006-02-15 09:45:30","Elista",80,"Russian Federation"
252,22,"320 Brest Avenue","","Kaduna","43331","747791594069","2006-02-15 09:45:30","Kaduna",69,"Nigeria"
267,23,"1417 Lancaster Avenue","","Northern Cape","72192","272572357893","2006-02-15 09:45:30","Kimberley",85,"South Africa"
327,24,"1688 Okara Way","","Nothwest Border Prov","21954","144453869132","2006-02-15 09:45:30","Mardan",72,"Pakistan"
525,25,"262 A Corua (La Corua) Parkway","","Dhaka","34418","892775750063","2006-02-15 09:45:30","Tangail",12,"Bangladesh"
443,26,"28 Charlotte Amalie Street","","Rabat-Sal-Zammour-Z","37551","161968374323","2006-02-15 09:45:30","Sal",62,"Morocco"
303,27,"1780 Hino Boulevard","","Liepaja","7716","902731229323","2006-02-15 09:45:30","Liepaja",54,"Latvia"
128,28,"96 Tafuna Way","","Crdoba","99865","934730187245","2006-02-15 09:45:30","Crdoba",6,"Argentina"
472,29,"934 San Felipe de Puerto Plata Street","","Sind","99780","196495945706","2006-02-15 09:45:30","Shikarpur",72,"Pakistan"
121,30,"18 Duisburg Boulevard","","","58327","998009777982","2006-02-15 09:45:30","Citt del Vaticano",41,"Holy See (Vatican City State)"
138,31,"217 Botshabelo Place","","Southern Mindanao","49521","665356572025","2006-02-15 09:45:30","Davao",75,"Philippines"
346,32,"1425 Shikarpur Manor","","Bihar","65599","678220867005","2006-02-15 09:45:30","Munger (Monghyr)",44,"India"
474,33,"786 Aurora Avenue","","Yamaguchi","65750","18461860151","2006-02-15 09:45:30","Shimonoseki",50,"Japan"
316,34,"1668 Anpolis Street","","Taipei","50199","525255540978","2006-02-15 09:45:30","Lungtan",92,"Taiwan"
257,35,"33 Gorontalo Way","","West Bengali","30348","745994947458","2006-02-15 09:45:30","Kamarhati",44,"India"
239,36,"176 Mandaluyong Place","","Uttar Pradesh","65213","627705991774","2006-02-15 09:45:30","Jhansi",44,"India"
17,37,"127 Purnea (Purnia) Manor","","Piemonte","79388","911872220378","2006-02-15 09:45:30","Alessandria",49,"Italy"
284,38,"61 Tama Street","","Okayama","94065","708403338270","2006-02-15 09:45:30","Kurashiki",50,"Japan"
544,39,"391 Callao Drive","","Midi-Pyrnes","34021","440512153169","2006-02-15 09:45:30","Toulouse",34,"France"
31,40,"334 Munger (Monghyr) Lane","","Markazi","38145","481183273622","2006-02-15 09:45:30","Arak",46,"Iran"
362,41,"1440 Fukuyama Loop","","Henan","47929","912257250465","2006-02-15 09:45:30","Nanyang",23,"China"
115,42,"269 Cam Ranh Parkway","","Chisinau","34689","489783829737","2006-02-15 09:45:30","Chisinau",61,"Moldova"
569,43,"306 Antofagasta Place","","Esprito Santo","3989","378318851631","2006-02-15 09:45:30","Vila Velha",15,"Brazil"
353,44,"671 Graz Street","","Oriental","94399","680768868518","2006-02-15 09:45:30","Nador",62,"Morocco"
586,45,"42 Brindisi Place","","Yerevan","16744","42384721397","2006-02-15 09:45:30","Yerevan",7,"Armenia"
394,46,"1632 Bislig Avenue","","Nonthaburi","61117","471675840679","2006-02-15 09:45:30","Pak Kret",94,"Thailand"
167,47,"1447 Imus Way","","Tahiti","48942","539758313890","2006-02-15 09:45:30","Faaa",36,"French Polynesia"
308,48,"1998 Halifax Drive","","Lipetsk","76022","177727722820","2006-02-15 09:45:30","Lipetsk",80,"Russian Federation"
27,49,"1718 Valencia Street","","Antofagasta","37359","675292816413","2006-02-15 09:45:30","Antofagasta",22,"Chile"
343,50,"46 Pjatigorsk Lane","","Moscow (City)","23616","262076994845","2006-02-15 09:45:30","Moscow",80,"Russian Federation"
247,51,"686 Garland Manor","","Cear","52535","69493378813","2006-02-15 09:45:30","Juazeiro do Norte",15,"Brazil"
367,52,"909 Garland Manor","","Tatarstan","69367","705800322606","2006-02-15 09:45:30","Niznekamsk",80,"Russian Federation"
237,53,"725 Isesaki Place","","Mekka","74428","876295323994","2006-02-15 09:45:30","Jedda",82,"Saudi Arabia"
379,54,"115 Hidalgo Parkway","","Khartum","80168","307703950263","2006-02-15 09:45:30","Omdurman",89,"Sudan"
171,55,"1135 Izumisano Parkway","","California","48150","171822533480","2006-02-15 09:45:30","Fontana",103,"United States"
1,56,"939 Probolinggo Loop","","Galicia","4166","680428310138","2006-02-15 09:45:30","A Corua (La Corua)",87,"Spain"
355,57,"17 Kabul Boulevard","","Chiba","38594","697760867968","2006-02-15 09:45:30","Nagareyama",50,"Japan"
227,58,"1964 Allappuzha (Alleppey) Street","","Yamaguchi","48980","920811325222","2006-02-15 09:45:30","Iwakuni",50,"Japan"
49,59,"1697 Kowloon and New Kowloon Loop","","Moskova","57807","499352017190","2006-02-15 09:45:30","Balaiha",80,"Russian Federation"
397,60,"1668 Saint Louis Place","","Tahiti","39072","347487831378","2006-02-15 09:45:30","Papeete",36,"French Polynesia"
560,61,"943 Tokat Street","","Vaduz","45428","889318963672","2006-02-15 09:45:30","Vaduz",55,"Liechtenstein"
282,62,"1114 Liepaja Street","","Sarawak","69226","212869228936","2006-02-15 09:45:30","Kuching",59,"Malaysia"
350,63,"1213 Ranchi Parkway","","Karnataka","94352","800024380485","2006-02-15 09:45:30","Mysore",44,"India"
231,64,"81 Hodeida Way","","Rajasthan","55561","250767749542","2006-02-15 09:45:30","Jaipur",44,"India"
56,65,"915 Ponce Place","","Basel-Stadt","83980","1395251317","2006-02-15 09:45:30","Basel",91,"Switzerland"
441,66,"1717 Guadalajara Lane","","Missouri","85505","914090181665","2006-02-15 09:45:30","Saint Louis",103,"United States"
306,67,"1214 Hanoi Way","","Nebraska","67055","491001136577","2006-02-15 09:45:30","Lincoln",103,"United States"
139,68,"1966 Amroha Avenue","","Sichuan","70385","333489324603","2006-02-15 09:45:30","Daxian",23,"China"
105,69,"698 Otsu Street","","Cayenne","71110","409983924481","2006-02-15 09:45:30","Cayenne",35,"French Guiana"
321,70,"1150 Kimchon Manor","","Skne ln","96109","663449333709","2006-02-15 09:45:30","Malm",90,"Sweden"
579,71,"1586 Guaruj Place","","Hunan","5135","947233365992","2006-02-15 09:45:30","Xiangtan",23,"China"
475,72,"57 Arlington Manor","","Madhya Pradesh","48960","990214419142","2006-02-15 09:45:30","Shivapuri",44,"India"
63,73,"1031 Daugavpils Parkway","","Bchar","59025","107137400143","2006-02-15 09:45:30","Bchar",2,"Algeria"
13,74,"1124 Buenaventura Drive","","Mekka","6856","407733804223","2006-02-15 09:45:30","al-Hawiya",82,"Saudi Arabia"
61,75,"492 Cam Ranh Street","","Eastern Visayas","50805","565018274456","2006-02-15 09:45:30","Baybay",75,"Philippines"
517,76,"89 Allappuzha (Alleppey) Manor","","National Capital Reg","75444","255800440636","2006-02-15 09:45:30","Taguig",75,"Philippines"
114,77,"1947 Poos de Caldas Boulevard","","Chiayi","60951","427454485876","2006-02-15 09:45:30","Chiayi",92,"Taiwan"
431,78,"1206 Dos Quebradas Place","","So Paulo","20207","241832790687","2006-02-15 09:45:30","Rio Claro",15,"Brazil"
108,79,"1551 Rampur Lane","","Changhwa","72394","251164340471","2006-02-15 09:45:30","Changhwa",92,"Taiwan"
402,80,"602 Paarl Street","","Pavlodar","98889","896314772871","2006-02-15 09:45:30","Pavlodar",51,"Kazakstan"
30,81,"1692 Ede Loop","","So Paulo","9223","918711376618","2006-02-15 09:45:30","Araatuba",15,"Brazil"
425,82,"936 Salzburg Lane","","Uttar Pradesh","96709","875756771675","2006-02-15 09:45:30","Rae Bareli",44,"India"
256,83,"586 Tete Way","","Kanagawa","1079","18581624103","2006-02-15 09:45:30","Kamakura",50,"Japan"
217,84,"1888 Kabul Drive","","Oyo & Osun","20936","701457319790","2006-02-15 09:45:30","Ife",69,"Nigeria"
319,85,"320 Baiyin Parkway","","Mahajanga","37307","223664661973","2006-02-15 09:45:30","Mahajanga",57,"Madagascar"
479,86,"927 Baha Blanca Parkway","","Krim","9495","821972242086","2006-02-15 09:45:30","Simferopol",100,"Ukraine"
497,87,"929 Tallahassee Loop","","Gauteng","74671","800716535041","2006-02-15 09:45:30","Springs",85,"South Africa"
40,88,"125 Citt del Vaticano Boulevard","","Puebla","67912","48417642933","2006-02-15 09:45:30","Atlixco",60,"Mexico"
88,89,"1557 Ktahya Boulevard","","England","88002","720998247660","2006-02-15 09:45:30","Bradford",102,"United Kingdom"
489,90,"870 Ashqelon Loop","","Songkhla","84931","135117278909","2006-02-15 09:45:30","Songkhla",94,"Thailand"
480,91,"1740 Portoviejo Avenue","","Sucre","29932","198123170793","2006-02-15 09:45:30","Sincelejo",24,"Colombia"
113,92,"1942 Ciparay Parkway","","Cheju","82624","978987363654","2006-02-15 09:45:30","Cheju",86,"South Korea"
289,93,"1926 El Alto Avenue","","Buenos Aires","75543","846225459260","2006-02-15 09:45:30","La Plata",6,"Argentina"
332,94,"1952 Chatsworth Drive","","Guangdong","25958","991562402283","2006-02-15 09:45:30","Meixian",23,"China"
53,95,"1370 Le Mans Avenue","","Brunei and Muara","52163","345679835036","2006-02-15 09:45:30","Bandar Seri Begawan",16,"Brunei"
183,96,"984 Effon-Alaiye Avenue","","Gois","17119","132986892228","2006-02-15 09:45:30","Goinia",15,"Brazil"
592,97,"832 Nakhon Sawan Manor","","Inner Mongolia","49021","275595571388","2006-02-15 09:45:30","Zalantun",23,"China"
82,98,"152 Kitwe Parkway","","Caraga","53182","835433605312","2006-02-15 09:45:30","Bislig",75,"Philippines"
399,99,"1697 Tanauan Lane","","Punjab","22870","4764773857","2006-02-15 09:45:30","Pathankot",44,"India"
41,100,"1308 Arecibo Way","","Georgia","30695","6171054059","2006-02-15 09:45:30","Augusta-Richmond County",103,"United States"
534,101,"1599 Plock Drive","","Tete","71986","817248913162","2006-02-15 09:45:30","Tete",63,"Mozambique"
12,102,"669 Firozabad Loop","","Abu Dhabi","92265","412903167998","2006-02-15 09:45:30","al-Ayn",101,"United Arab Emirates"
268,103,"588 Vila Velha Manor","","Kyongsangbuk","51540","333339908719","2006-02-15 09:45:30","Kimchon",86,"South Korea"
238,104,"1913 Kamakura Place","","Lipetsk","97287","942570536750","2006-02-15 09:45:30","Jelets",80,"Russian Federation"
2,105,"733 Mandaluyong Place","","Asir","77459","196568435814","2006-02-15 09:45:30","Abha",82,"Saudi Arabia"
34,106,"659 Vaduz Drive","","Ha Darom","49708","709935135487","2006-02-15 09:45:30","Ashdod",48,"Israel"
220,107,"1177 Jelets Way","","Kwara & Kogi","3305","484292626944","2006-02-15 09:45:30","Ilorin",69,"Nigeria"
543,108,"1386 Yangor Avenue","","Provence-Alpes-Cte","80720","449216226468","2006-02-15 09:45:30","Toulon",34,"France"
173,109,"454 Nakhon Sawan Boulevard","","Funafuti","76383","963887147572","2006-02-15 09:45:30","Funafuti",99,"Tuvalu"
225,110,"1867 San Juan Bautista Tuxtepec Avenue","","Ivanovo","78311","547003310357","2006-02-15 09:45:30","Ivanovo",80,"Russian Federation"
334,111,"1532 Dzerzinsk Way","","Buenos Aires","9599","330838016880","2006-02-15 09:45:30","Merlo",6,"Argentina"
213,112,"1002 Ahmadnagar Manor","","Mxico","93026","371490777743","2006-02-15 09:45:30","Huixquilucan",60,"Mexico"
273,113,"682 Junan Way","","North West","30418","622255216127","2006-02-15 09:45:30","Klerksdorp",85,"South Africa"
159,114,"804 Elista Drive","","Hubei","61069","379804592943","2006-02-15 09:45:30","Enshi",23,"China"
102,115,"1378 Alvorada Avenue","","Distrito Federal","75834","272234298332","2006-02-15 09:45:30","Caracas",104,"Venezuela"
292,116,"793 Cam Ranh Avenue","","California","87057","824370924746","2006-02-15 09:45:30","Lancaster",103,"United States"
132,117,"1079 Tel Aviv-Jaffa Boulevard","","Sucre","10885","358178933857","2006-02-15 09:45:30","Cuman",104,"Venezuela"
148,118,"442 Rae Bareli Place","","Nordrhein-Westfalen","24321","886636413768","2006-02-15 09:45:30","Duisburg",38,"Germany"
365,119,"1107 Nakhon Sawan Avenue","","Mxico","75149","867546627903","2006-02-15 09:45:30","Nezahualcyotl",60,"Mexico"
403,120,"544 Malm Parkway","","Central Java","63502","386759646229","2006-02-15 09:45:30","Pemalang",45,"Indonesia"
176,121,"1967 Sincelejo Place","","Gujarat","73644","577812616052","2006-02-15 09:45:30","Gandhinagar",44,"India"
185,122,"333 Goinia Way","","Texas","78625","909029256431","2006-02-15 09:45:30","Grand Prairie",103,"United States"
476,123,"1987 Coacalco de Berriozbal Loop","","al-Qalyubiya","96065","787654415858","2006-02-15 09:45:30","Shubra al-Khayma",29,"Egypt"
147,124,"241 Mosul Lane","","Risaralda","76157","765345144779","2006-02-15 09:45:30","Dos Quebradas",24,"Colombia"
164,125,"211 Chiayi Drive","","Uttar Pradesh","58186","665993880048","2006-02-15 09:45:30","Etawah",44,"India"
305,126,"1175 Tanauan Way","","Lima","64615","937222955822","2006-02-15 09:45:30","Lima",74,"Peru"
566,127,"117 Boa Vista Way","","Uttar Pradesh","6804","677976133614","2006-02-15 09:45:30","Varanasi (Benares)",44,"India"
281,128,"848 Tafuna Manor","","Ktahya","45142","614935229095","2006-02-15 09:45:30","Ktahya",97,"Turkey"
85,129,"569 Baicheng Lane","","Gauteng","60304","490211944645","2006-02-15 09:45:30","Boksburg",85,"South Africa"
410,130,"1666 Qomsheh Drive","","So Paulo","66255","582835362905","2006-02-15 09:45:30","Po",15,"Brazil"
484,131,"801 Hagonoy Drive","","Smolensk","8439","237426099212","2006-02-15 09:45:30","Smolensk",80,"Russian Federation"
236,132,"1050 Garden Grove Avenue","","Slaskie","4999","973047364353","2006-02-15 09:45:30","Jastrzebie-Zdrj",76,"Poland"
302,133,"1854 Tieli Street","","Shandong","15819","509492324775","2006-02-15 09:45:30","Liaocheng",23,"China"
190,134,"758 Junan Lane","","Gois","82639","935448624185","2006-02-15 09:45:30","guas Lindas de Gois",15,"Brazil"
345,135,"1752 So Leopoldo Parkway","","Taka-Karpatia","14014","252265130067","2006-02-15 09:45:30","Mukateve",100,"Ukraine"
87,136,"898 Belm Manor","","Free State","49757","707169393853","2006-02-15 09:45:30","Botshabelo",85,"South Africa"
541,137,"261 Saint Louis Way","","Coahuila de Zaragoza","83401","321944036800","2006-02-15 09:45:30","Torren",60,"Mexico"
421,138,"765 Southampton Drive","","al-Qalyubiya","4285","23712411567","2006-02-15 09:45:30","Qalyub",29,"Egypt"
417,139,"943 Johannesburg Avenue","","Maharashtra","5892","90921003005","2006-02-15 09:45:30","Pune",44,"India"
211,140,"788 Atinsk Street","","Karnataka","81691","146497509724","2006-02-15 09:45:30","Hubli-Dharwad",44,"India"
29,141,"1749 Daxian Place","","Gelderland","11044","963369996279","2006-02-15 09:45:30","Apeldoorn",67,"Netherlands"
207,142,"1587 Sullana Lane","","Inner Mongolia","85769","468060467018","2006-02-15 09:45:30","Hohhot",23,"China"
542,143,"1029 Dzerzinsk Manor","","Ynlin","57519","33173584456","2006-02-15 09:45:30","Touliu",92,"Taiwan"
123,144,"1666 Beni-Mellal Place","","Tennessee","13377","9099941466","2006-02-15 09:45:30","Clarksville",103,"United States"
172,145,"928 Jaffna Loop","","Hiroshima","93762","581852137991","2006-02-15 09:45:30","Fukuyama",50,"Japan"
149,146,"483 Ljubertsy Parkway","","Scotland","60562","581174211853","2006-02-15 09:45:30","Dundee",102,"United Kingdom"
266,147,"374 Bat Yam Boulevard","","Kilis","97700","923261616249","2006-02-15 09:45:30","Kilis",97,"Turkey"
340,148,"1027 Songkhla Manor","","Minsk","30861","563660187896","2006-02-15 09:45:30","Molodetno",13,"Belarus"
491,149,"999 Sanaa Loop","","Gauteng","3439","918032330119","2006-02-15 09:45:30","Soshanguve",85,"South Africa"
499,150,"879 Newcastle Way","","Michigan","90732","206841104594","2006-02-15 09:45:30","Sterling Heights",103,"United States"
555,151,"1337 Lincoln Parkway","","Saitama","99457","597815221267","2006-02-15 09:45:30","Urawa",50,"Japan"
442,152,"1952 Pune Lane","","Saint-Denis","92150","354615066969","2006-02-15 09:45:30","Saint-Denis",79,"Runion"
94,153,"782 Mosul Street","","Massachusetts","25545","885899703621","2006-02-15 09:45:30","Brockton",103,"United States"
202,154,"781 Shimonoseki Drive","","Michoacn de Ocampo","95444","632316273199","2006-02-15 09:45:30","Hidalgo",60,"Mexico"
291,155,"1560 Jelets Boulevard","","Shandong","77777","189446090264","2006-02-15 09:45:30","Laiwu",23,"China"
354,156,"1963 Moscow Place","","Assam","64863","761379480249","2006-02-15 09:45:30","Nagaon",44,"India"
232,157,"456 Escobar Way","","Jakarta Raya","36061","719202533520","2006-02-15 09:45:30","Jakarta",45,"Indonesia"
590,158,"798 Cianjur Avenue","","Shanxi","76990","499408708580","2006-02-15 09:45:30","Yuncheng",23,"China"
72,159,"185 Novi Sad Place","","Bern","41778","904253967161","2006-02-15 09:45:30","Bern",91,"Switzerland"
381,160,"1367 Yantai Manor","","Ondo & Ekiti","21294","889538496300","2006-02-15 09:45:30","Ondo",69,"Nigeria"
420,161,"1386 Nakhon Sawan Boulevard","","Pyongyang-si","53502","368899174225","2006-02-15 09:45:30","Pyongyang",70,"North Korea"
187,162,"369 Papeete Way","","North Carolina","66639","170117068815","2006-02-15 09:45:30","Greensboro",103,"United States"
307,163,"1440 Compton Place","","North Austria","81037","931059836497","2006-02-15 09:45:30","Linz",9,"Austria"
310,164,"1623 Baha Blanca Manor","","Moskova","81511","149981248346","2006-02-15 09:45:30","Ljubertsy",80,"Russian Federation"
533,165,"97 Shimoga Avenue","","Tel Aviv","44660","177167004331","2006-02-15 09:45:30","Tel Aviv-Jaffa",48,"Israel"
297,166,"1740 Le Mans Loop","","Pays de la Loire","22853","168476538960","2006-02-15 09:45:30","Le Mans",34,"France"
253,167,"1287 Xiangfan Boulevard","","Gifu","57844","819416131190","2006-02-15 09:45:30","Kakamigahara",50,"Japan"
529,168,"842 Salzburg Lane","","Adana","3313","697151428760","2006-02-15 09:45:30","Tarsus",97,"Turkey"
199,169,"154 Tallahassee Loop","","Xinxiang","62250","935508855935","2006-02-15 09:45:30","Hami",23,"China"
304,170,"710 San Felipe del Progreso Avenue","","Lilongwe","76901","843801144113","2006-02-15 09:45:30","Lilongwe",58,"Malawi"
107,171,"1540 Wroclaw Drive","","Maharashtra","62686","182363341674","2006-02-15 09:45:30","Chandrapur",44,"India"
240,172,"475 Atinsk Way","","Gansu","59571","201705577290","2006-02-15 09:45:30","Jinchang",23,"China"
407,173,"1294 Firozabad Drive","","Jiangxi","70618","161801569569","2006-02-15 09:45:30","Pingxiang",23,"China"
550,174,"1877 Ezhou Lane","","Rajasthan","63337","264541743403","2006-02-15 09:45:30","Udaipur",44,"India"
223,175,"316 Uruapan Street","","Perak","58194","275788967899","2006-02-15 09:45:30","Ipoh",59,"Malaysia"
58,176,"29 Pyongyang Loop","","Batman","47753","734780743462","2006-02-15 09:45:30","Batman",97,"Turkey"
186,177,"1010 Klerksdorp Way","","Steiermark","6802","493008546874","2006-02-15 09:45:30","Graz",9,"Austria"
373,178,"1848 Salala Boulevard","","Miranda","25220","48265851133","2006-02-15 09:45:30","Ocumare del Tuy",104,"Venezuela"
18,179,"431 Xiangtan Avenue","","Kerala","4854","230250973122","2006-02-15 09:45:30","Allappuzha (Alleppey)",44,"India"
483,180,"757 Rustenburg Avenue","","Skikda","89668","506134035434","2006-02-15 09:45:30","Skikda",2,"Algeria"
330,181,"146 Johannesburg Way","","Tamaulipas","54132","953689007081","2006-02-15 09:45:30","Matamoros",60,"Mexico"
456,182,"1891 Rizhao Boulevard","","So Paulo","47288","391065549876","2006-02-15 09:45:30","Santa Brbara dOeste",15,"Brazil"
270,183,"1089 Iwatsuki Avenue","","Kirov","35109","866092335135","2006-02-15 09:45:30","Kirovo-Tepetsk",80,"Russian Federation"
405,184,"1410 Benin City Parkway","","Risaralda","29747","104150372603","2006-02-15 09:45:30","Pereira",24,"Colombia"
333,185,"682 Garden Grove Place","","Tennessee","67497","72136330362","2006-02-15 09:45:30","Memphis",103,"United States"
126,186,"533 al-Ayn Boulevard","","California","8862","662227486184","2006-02-15 09:45:30","Compton",103,"United States"
317,187,"1839 Szkesfehrvr Parkway","","Gois","55709","947468818183","2006-02-15 09:45:30","Luzinia",15,"Brazil"
438,188,"741 Ambattur Manor","","Noord-Brabant","43310","302590383819","2006-02-15 09:45:30","s-Hertogenbosch",67,"Netherlands"
467,189,"927 Barcelona Street","","Chaharmahal va Bakht","65121","951486492670","2006-02-15 09:45:30","Shahr-e Kord",46,"Iran"
195,190,"435 0 Way","","West Bengali","74750","760171523969","2006-02-15 09:45:30","Haldia",44,"India"
506,191,"140 Chiayi Parkway","","Sumy","38982","855863906434","2006-02-15 09:45:30","Sumy",100,"Ukraine"
62,192,"1166 Changhwa Street","","Caraga","58852","650752094490","2006-02-15 09:45:30","Bayugan",75,"Philippines"
383,193,"891 Novi Sad Manor","","Ontario","5379","247646995453","2006-02-15 09:45:30","Oshawa",20,"Canada"
513,194,"605 Rio Claro Parkway","","Tabora","49348","352469351088","2006-02-15 09:45:30","Tabora",93,"Tanzania"
369,195,"1077 San Felipe de Puerto Plata Place","","Rostov-na-Donu","65387","812824036424","2006-02-15 09:45:30","Novoterkassk",80,"Russian Federation"
169,196,"9 San Miguel de Tucumn Manor","","Uttar Pradesh","90845","956188728558","2006-02-15 09:45:30","Firozabad",44,"India"
271,197,"447 Surakarta Loop","","Nyanza","10428","940830176580","2006-02-15 09:45:30","Kisumu",52,"Kenya"
204,198,"345 Oshawa Boulevard","","Tokyo-to","32114","104491201771","2006-02-15 09:45:30","Hino",50,"Japan"
477,199,"1792 Valle de la Pascua Place","","Nordrhein-Westfalen","15540","419419591240","2006-02-15 09:45:30","Siegen",38,"Germany"
325,200,"1074 Binzhou Manor","","Baden-Wrttemberg","36490","331132568928","2006-02-15 09:45:30","Mannheim",38,"Germany"
109,201,"817 Bradford Loop","","Jiangsu","89459","264286442804","2006-02-15 09:45:30","Changzhou",23,"China"
218,202,"955 Bamenda Way","","Ondo & Ekiti","1545","768481779568","2006-02-15 09:45:30","Ikerre",69,"Nigeria"
194,203,"1149 A Corua (La Corua) Boulevard","","Haiphong","95824","470884141195","2006-02-15 09:45:30","Haiphong",105,"Vietnam"
35,204,"387 Mwene-Ditu Drive","","Ahal","8073","764477681869","2006-02-15 09:45:30","Ashgabat",98,"Turkmenistan"
575,205,"68 Molodetno Manor","","Nordrhein-Westfalen","4662","146640639760","2006-02-15 09:45:30","Witten",38,"Germany"
77,206,"642 Nador Drive","","Maharashtra","3924","369050085652","2006-02-15 09:45:30","Bhusawal",44,"India"
184,207,"1688 Nador Lane","","Sulawesi Utara","61613","652218196731","2006-02-15 09:45:30","Gorontalo",45,"Indonesia"
557,208,"1215 Pyongyang Parkway","","Usak","25238","646237101779","2006-02-15 09:45:30","Usak",97,"Turkey"
122,209,"1679 Antofagasta Street","","Alto Paran","86599","905903574913","2006-02-15 09:45:30","Ciudad del Este",73,"Paraguay"
83,210,"1304 s-Hertogenbosch Way","","Santa Catarina","10925","90336226227","2006-02-15 09:45:30","Blumenau",15,"Brazil"
371,211,"850 Salala Loop","","Kitaa","10800","403404780639","2006-02-15 09:45:30","Nuuk",40,"Greenland"
51,212,"624 Oshawa Boulevard","","West Bengali","89959","49677664184","2006-02-15 09:45:30","Balurghat",44,"India"
74,213,"43 Dadu Avenue","","Rajasthan","4855","95666951770","2006-02-15 09:45:30","Bhilwara",44,"India"
7,214,"751 Lima Loop","","Aden","99405","756460337785","2006-02-15 09:45:30","Aden",107,"Yemen"
174,215,"1333 Haldia Street","","Jilin","82161","408304391718","2006-02-15 09:45:30","Fuyu",23,"China"
65,216,"660 Jedda Boulevard","","Washington","25053","168758068397","2006-02-15 09:45:30","Bellevue",103,"United States"
518,217,"1001 Miyakonojo Lane","","Taizz","67924","584316724815","2006-02-15 09:45:30","Taizz",107,"Yemen"
508,218,"226 Brest Manor","","California","2299","785881412500","2006-02-15 09:45:30","Sunnyvale",103,"United States"
498,219,"1229 Valencia Parkway","","Haskovo","99124","352679173732","2006-02-15 09:45:30","Stara Zagora",17,"Bulgaria"
28,220,"1201 Qomsheh Manor","","Gois","21464","873492228462","2006-02-15 09:45:30","Aparecida de Goinia",15,"Brazil"
448,221,"866 Shivapuri Manor","","Uttar Pradesh","22474","778502731092","2006-02-15 09:45:30","Sambhal",44,"India"
251,222,"1168 Najafabad Parkway","","Kabol","40301","886649065861","2006-02-15 09:45:30","Kabul",1,"Afghanistan"
567,223,"1244 Allappuzha (Alleppey) Place","","Buenos Aires","20657","991802825778","2006-02-15 09:45:30","Vicente Lpez",6,"Argentina"
593,224,"1842 Luzinia Boulevard","","Zanzibar West","94420","706878974831","2006-02-15 09:45:30","Zanzibar",93,"Tanzania"
511,225,"1926 Gingoog Street","","Sisilia","22824","469738825391","2006-02-15 09:45:30","Syrakusa",49,"Italy"
235,226,"810 Palghat (Palakkad) Boulevard","","Jaroslavl","73431","516331171356","2006-02-15 09:45:30","Jaroslavl",80,"Russian Federation"
324,227,"1820 Maring Parkway","","Punjab","88307","99760893676","2006-02-15 09:45:30","Mandi Bahauddin",72,"Pakistan"
243,228,"60 Poos de Caldas Street","","Rajasthan","82338","963063788669","2006-02-15 09:45:30","Jodhpur",44,"India"
22,229,"1014 Loja Manor","","Tamil Nadu","66851","460795526514","2006-02-15 09:45:30","Ambattur",44,"India"
37,230,"201 Effon-Alaiye Way","","Asuncin","64344","684192903087","2006-02-15 09:45:30","Asuncin",73,"Paraguay"
439,231,"430 Alessandria Loop","","Saarland","47446","669828224459","2006-02-15 09:45:30","Saarbrcken",38,"Germany"
406,232,"754 Valencia Place","","Phnom Penh","87911","594319417514","2006-02-15 09:45:30","Phnom Penh",18,"Cambodia"
26,233,"356 Olomouc Manor","","Gois","93323","22326410776","2006-02-15 09:45:30","Anpolis",15,"Brazil"
86,234,"1256 Bislig Boulevard","","Botosani","50598","479007229460","2006-02-15 09:45:30","Botosani",78,"Romania"
559,235,"954 Kimchon Place","","West Bengali","42420","541327526474","2006-02-15 09:45:30","Uttarpara-Kotrung",44,"India"
596,236,"885 Yingkou Manor","","Kaduna","31390","588964509072","2006-02-15 09:45:30","Zaria",69,"Nigeria"
216,237,"1736 Cavite Place","","Qina","98775","431770603551","2006-02-15 09:45:30","Idfu",29,"Egypt"
233,238,"346 Skikda Parkway","","Hawalli","90628","630424482919","2006-02-15 09:45:30","Jalib al-Shuyukh",53,"Kuwait"
96,239,"98 Stara Zagora Boulevard","","Valle","76448","610173756082","2006-02-15 09:45:30","Buenaventura",24,"Colombia"
527,240,"1479 Rustenburg Boulevard","","Southern Tagalog","18727","727785483194","2006-02-15 09:45:30","Tanza",75,"Philippines"
357,241,"647 A Corua (La Corua) Street","","Chollanam","36971","792557457753","2006-02-15 09:45:30","Naju",86,"South Korea"
473,242,"1964 Gijn Manor","","Karnataka","14408","918119601885","2006-02-15 09:45:30","Shimoga",44,"India"
118,243,"47 Syktyvkar Lane","","West Java","22236","63937119031","2006-02-15 09:45:30","Ciomas",45,"Indonesia"
226,244,"1148 Saarbrcken Parkway","","Fukushima","1921","137773001988","2006-02-15 09:45:30","Iwaki",50,"Japan"
578,245,"1103 Bilbays Parkway","","Hubei","87660","279979529227","2006-02-15 09:45:30","Xiangfan",23,"China"
422,246,"1246 Boksburg Parkway","","Hebei","28349","890283544295","2006-02-15 09:45:30","Qinhuangdao",23,"China"
454,247,"1483 Pathankot Street","","Tucumn","37288","686015532180","2006-02-15 09:45:30","San Miguel de Tucumn",6,"Argentina"
294,248,"582 Papeete Loop","","Central Visayas","27722","569868543137","2006-02-15 09:45:30","Lapu-Lapu",75,"Philippines"
553,249,"300 Junan Street","","Kyonggi","81314","890289150158","2006-02-15 09:45:30","Uijongbu",86,"South Korea"
328,250,"829 Grand Prairie Way","","Paran","6461","741070712873","2006-02-15 09:45:30","Maring",15,"Brazil"
124,251,"1473 Changhwa Parkway","","Mxico","75933","266798132374","2006-02-15 09:45:30","Coacalco de Berriozbal",60,"Mexico"
520,252,"1309 Weifang Street","","Florida","57338","435785045362","2006-02-15 09:45:30","Tallahassee",103,"United States"
535,253,"1760 Oshawa Manor","","Tianjin","38140","56257502250","2006-02-15 09:45:30","Tianjin",23,"China"
390,254,"786 Stara Zagora Way","","Oyo & Osun","98332","716256596301","2006-02-15 09:45:30","Oyo",69,"Nigeria"
198,255,"1966 Tonghae Street","","Anhalt Sachsen","36481","567359279425","2006-02-15 09:45:30","Halle/Saale",38,"Germany"
312,256,"1497 Yuzhou Drive","","England","3433","246810237916","2006-02-15 09:45:30","London",102,"United Kingdom"
338,258,"752 Ondo Loop","","Miyazaki","32474","134673576619","2006-02-15 09:45:30","Miyakonojo",50,"Japan"
413,259,"1338 Zalantun Lane","","Minas Gerais","45403","840522972766","2006-02-15 09:45:30","Poos de Caldas",15,"Brazil"
192,260,"127 Iwakuni Boulevard","","Central Luzon","20777","987442542471","2006-02-15 09:45:30","Hagonoy",75,"Philippines"
342,261,"51 Laredo Avenue","","Sagaing","68146","884536620568","2006-02-15 09:45:30","Monywa",64,"Myanmar"
64,262,"771 Yaound Manor","","Sofala","86768","245477603573","2006-02-15 09:45:30","Beira",63,"Mozambique"
460,263,"532 Toulon Street","","Santiago","69517","46871694740","2006-02-15 09:45:30","Santiago de los Caballeros",27,"Dominican Republic"
197,264,"1027 Banjul Place","","West Bengali","50390","538241037443","2006-02-15 09:45:30","Halisahar",44,"India"
136,265,"1158 Mandi Bahauddin Parkway","","Shanxi","98484","276555730211","2006-02-15 09:45:30","Datong",23,"China"
548,266,"862 Xintai Lane","","Cagayan Valley","30065","265153400632","2006-02-15 09:45:30","Tuguegarao",75,"Philippines"
414,267,"816 Cayenne Parkway","","Manab","93629","282874611748","2006-02-15 09:45:30","Portoviejo",28,"Ecuador"
323,268,"1831 Nam Dinh Loop","","National Capital Reg","51990","322888976727","2006-02-15 09:45:30","Mandaluyong",75,"Philippines"
203,269,"446 Kirovo-Tepetsk Lane","","Osaka","19428","303967439816","2006-02-15 09:45:30","Higashiosaka",50,"Japan"
378,270,"682 Halisahar Place","","Severn Morava","20536","475553436330","2006-02-15 09:45:30","Olomouc",26,"Czech Republic"
447,271,"1587 Loja Manor","","Salzburg","5410","621625204422","2006-02-15 09:45:30","Salzburg",9,"Austria"
298,272,"1762 Paarl Parkway","","Hunan","53928","192459639410","2006-02-15 09:45:30","Lengshuijiang",23,"China"
395,273,"1519 Ilorin Place","","Kerala","49298","357445645426","2006-02-15 09:45:30","Palghat (Palakkad)",44,"India"
446,274,"920 Kumbakonam Loop","","California","75090","685010736240","2006-02-15 09:45:30","Salinas",103,"United States"
255,275,"906 Goinia Way","","Wielkopolskie","83565","701767622697","2006-02-15 09:45:30","Kalisz",76,"Poland"
283,276,"1675 Xiangfan Manor","","Tamil Nadu","11763","271149517630","2006-02-15 09:45:30","Kumbakonam",44,"India"
584,277,"85 San Felipe de Puerto Plata Drive","","Shandong","46063","170739645687","2006-02-15 09:45:30","Yantai",23,"China"
445,278,"144 South Hill Loop","","Guanajuato","2012","45387294817","2006-02-15 09:45:30","Salamanca",60,"Mexico"
263,279,"1884 Shikarpur Avenue","","Haryana","85548","959949395183","2006-02-15 09:45:30","Karnal",44,"India"
404,280,"1980 Kamjanets-Podilskyi Street","","Illinois","89502","874337098891","2006-02-15 09:45:30","Peoria",103,"United States"
573,281,"1944 Bamenda Way","","Michigan","24645","75975221996","2006-02-15 09:45:30","Warren",103,"United States"
374,282,"556 Baybay Manor","","Oyo & Osun","55802","363982224739","2006-02-15 09:45:30","Ogbomosho",69,"Nigeria"
222,283,"457 Tongliao Loop","","Bursa","56254","880756161823","2006-02-15 09:45:30","Inegl",97,"Turkey"
514,284,"600 Bradford Street","","East Azerbaidzan","96204","117592274996","2006-02-15 09:45:30","Tabriz",46,"Iran"
389,285,"1006 Santa Brbara dOeste Manor","","Ondo & Ekiti","36229","85059738746","2006-02-15 09:45:30","Owo",69,"Nigeria"
175,286,"1308 Sumy Loop","","Fujian","30657","583021225407","2006-02-15 09:45:30","Fuzhou",23,"China"
411,287,"1405 Chisinau Place","","Ponce","8160","62781725285","2006-02-15 09:45:30","Ponce",77,"Puerto Rico"
277,288,"226 Halifax Street","","Xinxiang","58492","790651020929","2006-02-15 09:45:30","Korla",23,"China"
69,289,"1279 Udine Parkway","","Edo & Delta","75860","195003555232","2006-02-15 09:45:30","Benin City",69,"Nigeria"
386,290,"1336 Benin City Drive","","Shiga","46044","341242939532","2006-02-15 09:45:30","Otsu",50,"Japan"
152,291,"1155 Liaocheng Place","","Oyo & Osun","22650","558236142492","2006-02-15 09:45:30","Effon-Alaiye",69,"Nigeria"
522,292,"1993 Tabuk Lane","","Tamil Nadu","64221","648482415405","2006-02-15 09:45:30","Tambaram",44,"India"
563,293,"86 Higashiosaka Lane","","Guanajuato","33768","957128697225","2006-02-15 09:45:30","Valle de Santiago",60,"Mexico"
279,294,"1912 Allende Manor","","Kowloon and New Kowl","58124","172262454487","2006-02-15 09:45:30","Kowloon and New Kowloon",42,"Hong Kong"
562,295,"544 Tarsus Boulevard","","Gurico","53145","892523334","2006-02-15 09:45:30","Valle de la Pascua",104,"Venezuela"
433,296,"1936 Cuman Avenue","","Virginia","61195","976798660411","2006-02-15 09:45:30","Roanoke",103,"United States"
470,297,"1192 Tongliao Street","","Sharja","19065","350970907017","2006-02-15 09:45:30","Sharja",101,"United Arab Emirates"
146,298,"44 Najafabad Way","","Baskimaa","61391","96604821070","2006-02-15 09:45:30","Donostia-San Sebastin",87,"Spain"
140,299,"32 Pudukkottai Lane","","Ohio","38834","967274728547","2006-02-15 09:45:30","Dayton",103,"United States"
274,300,"661 Chisinau Lane","","Pietari","8856","816436065431","2006-02-15 09:45:30","Kolpino",80,"Russian Federation"
400,301,"951 Stara Zagora Manor","","Punjab","98573","429925609431","2006-02-15 09:45:30","Patiala",44,"India"
9,302,"922 Vila Velha Loop","","Maharashtra","4085","510737228015","2006-02-15 09:45:30","Ahmadnagar",44,"India"
387,303,"898 Jining Lane","","Pohjois-Pohjanmaa","40070","161643343536","2006-02-15 09:45:30","Oulu",33,"Finland"
205,304,"1635 Kuwana Boulevard","","Hiroshima","52137","710603868323","2006-02-15 09:45:30","Hiroshima",50,"Japan"
398,305,"41 El Alto Parkway","","Maharashtra","56883","51917807050","2006-02-15 09:45:30","Parbhani",44,"India"
254,306,"1883 Maikop Lane","","Kaliningrad","68469","96110042435","2006-02-15 09:45:30","Kaliningrad",80,"Russian Federation"
536,307,"1908 Gaziantep Place","","Liaoning","58979","108053751300","2006-02-15 09:45:30","Tiefa",23,"China"
455,308,"687 Alessandria Parkway","","Sanaa","57587","407218522294","2006-02-15 09:45:30","Sanaa",107,"Yemen"
99,309,"827 Yuncheng Drive","","Callao","79047","504434452842","2006-02-15 09:45:30","Callao",74,"Peru"
33,310,"913 Coacalco de Berriozbal Loop","","Texas","42141","262088367001","2006-02-15 09:45:30","Arlington",103,"United States"
507,311,"715 So Bernardo do Campo Lane","","Kedah","84804","181179321332","2006-02-15 09:45:30","Sungai Petani",59,"Malaysia"
25,312,"1354 Siegen Street","","Rio de Janeiro","80184","573441801529","2006-02-15 09:45:30","Angra dos Reis",15,"Brazil"
262,313,"1191 Sungai Petani Boulevard","","Missouri","9668","983259819766","2006-02-15 09:45:30","Kansas City",103,"United States"
91,314,"1224 Huejutla de Reyes Boulevard","","Lombardia","70923","806016930576","2006-02-15 09:45:30","Brescia",49,"Italy"
215,315,"543 Bergamo Avenue","","Minas Gerais","59686","103602195112","2006-02-15 09:45:30","Ibirit",15,"Brazil"
286,316,"746 Joliet Lane","","Kursk","94878","688485191923","2006-02-15 09:45:30","Kursk",80,"Russian Federation"
515,317,"780 Kimberley Way","","Tabuk","17032","824396883951","2006-02-15 09:45:30","Tabuk",82,"Saudi Arabia"
166,318,"1774 Yaound Place","","Hubei","91400","613124286867","2006-02-15 09:45:30","Ezhou",23,"China"
490,319,"1957 Yantai Lane","","So Paulo","59255","704948322302","2006-02-15 09:45:30","Sorocaba",15,"Brazil"
57,320,"1542 Lubumbashi Boulevard","","Tel Aviv","62472","508800331065","2006-02-15 09:45:30","Bat Yam",48,"Israel"
336,321,"651 Pathankot Loop","","Maharashtra","59811","139378397418","2006-02-15 09:45:30","Miraj",44,"India"
545,322,"1359 Zhoushan Parkway","","Streymoyar","29763","46568045367","2006-02-15 09:45:30","Trshavn",32,"Faroe Islands"
97,323,"1769 Iwaki Lane","","Kujawsko-Pomorskie","25787","556100547674","2006-02-15 09:45:30","Bydgoszcz",76,"Poland"
451,324,"1145 Vilnius Manor","","Mxico","73170","674805712553","2006-02-15 09:45:30","San Felipe del Progreso",60,"Mexico"
516,325,"1892 Nabereznyje Telny Lane","","Tutuila","28396","478229987054","2006-02-15 09:45:30","Tafuna",3,"American Samoa"
81,326,"470 Boksburg Street","","Central","97960","908029859266","2006-02-15 09:45:30","Birgunj",66,"Nepal"
45,327,"1427 A Corua (La Corua) Place","","Buenos Aires","85799","972574862516","2006-02-15 09:45:30","Baha Blanca",6,"Argentina"
130,328,"479 San Felipe del Progreso Avenue","","Morelos","54949","869051782691","2006-02-15 09:45:30","Cuautla",60,"Mexico"
591,329,"867 Benin City Avenue","","Henan","78543","168884817145","2006-02-15 09:45:30","Yuzhou",23,"China"
89,330,"981 Kumbakonam Place","","Distrito Federal","87611","829116184079","2006-02-15 09:45:30","Braslia",15,"Brazil"
269,331,"1016 Iwakuni Street","","St George","49833","961370847344","2006-02-15 09:45:30","Kingstown",81,"Saint Vincent and the Grenadines"
5,332,"663 Baha Blanca Parkway","","Adana","33463","834418779292","2006-02-15 09:45:30","Adana",97,"Turkey"
119,333,"1860 Taguig Loop","","West Java","59550","38158430589","2006-02-15 09:45:30","Ciparay",45,"Indonesia"
234,334,"1816 Bydgoszcz Loop","","Dhaka","64308","965273813662","2006-02-15 09:45:30","Jamalpur",12,"Bangladesh"
42,335,"587 Benguela Manor","","Illinois","91590","165450987037","2006-02-15 09:45:30","Aurora",103,"United States"
457,336,"430 Kumbakonam Drive","","Santa F","28814","105470691550","2006-02-15 09:45:30","Santa F",6,"Argentina"
143,337,"1838 Tabriz Lane","","Dhaka","1195","38988715447","2006-02-15 09:45:30","Dhaka",12,"Bangladesh"
48,338,"431 Szkesfehrvr Avenue","","Baki","57828","119501405123","2006-02-15 09:45:30","Baku",10,"Azerbaijan"
505,339,"503 Sogamoso Loop","","Sumqayit","49812","834626715837","2006-02-15 09:45:30","Sumqayit",10,"Azerbaijan"
492,340,"507 Smolensk Loop","","Sousse","22971","80303246192","2006-02-15 09:45:30","Sousse",96,"Tunisia"
427,341,"1920 Weifang Avenue","","Uttar Pradesh","15643","869507847714","2006-02-15 09:45:30","Rampur",44,"India"
382,342,"124 al-Manama Way","","Hiroshima","52368","647899404952","2006-02-15 09:45:30","Onomichi",50,"Japan"
392,343,"1443 Mardan Street","","Western Cape","31483","231383037471","2006-02-15 09:45:30","Paarl",85,"South Africa"
581,344,"1909 Benguela Lane","","Henan","19913","624138001031","2006-02-15 09:45:30","Xinxiang",23,"China"
201,345,"68 Ponce Parkway","","Hanoi","85926","870635127812","2006-02-15 09:45:30","Hanoi",105,"Vietnam"
151,346,"1217 Konotop Avenue","","Gelderland","504","718917251754","2006-02-15 09:45:30","Ede",67,"Netherlands"
84,347,"1293 Nam Dinh Way","","Roraima","71583","697656479977","2006-02-15 09:45:30","Boa Vista",15,"Brazil"
335,348,"785 Vaduz Street","","Baja California","36170","895616862749","2006-02-15 09:45:30","Mexicali",60,"Mexico"
370,349,"1516 Escobar Drive","","Tongatapu","46069","64536069371","2006-02-15 09:45:30","Nukualofa",95,"Tonga"
453,350,"1628 Nagareyama Lane","","Central","60079","20064292617","2006-02-15 09:45:30","San Lorenzo",73,"Paraguay"
320,351,"1157 Nyeri Loop","","Adygea","56380","262744791493","2006-02-15 09:45:30","Maikop",80,"Russian Federation"
137,352,"1673 Tangail Drive","","Daugavpils","26857","627924259271","2006-02-15 09:45:30","Daugavpils",54,"Latvia"
209,353,"381 Kabul Way","","Taipei","87272","55477302294","2006-02-15 09:45:30","Hsichuh",92,"Taiwan"
221,354,"953 Hodeida Street","","Southern Tagalog","18841","53912826864","2006-02-15 09:45:30","Imus",75,"Philippines"
531,355,"469 Nakhon Sawan Street","","Tuvassia","58866","689199636560","2006-02-15 09:45:30","Teboksary",80,"Russian Federation"
597,356,"1378 Beira Loop","","Krasnojarsk","40792","840957664136","2006-02-15 09:45:30","Zeleznogorsk",80,"Russian Federation"
52,357,"1641 Changhwa Place","","Nord-Ouest","37636","256546485220","2006-02-15 09:45:30","Bamenda",19,"Cameroon"
393,358,"1698 Southport Loop","","Hidalgo","49009","754358349853","2006-02-15 09:45:30","Pachuca de Soto",60,"Mexico"
461,359,"519 Nyeri Manor","","So Paulo","37650","764680915323","2006-02-15 09:45:30","Santo Andr",15,"Brazil"
331,360,"619 Hunuco Avenue","","Shimane","81508","142596392389","2006-02-15 09:45:30","Matsue",50,"Japan"
464,361,"45 Aparecida de Goinia Place","","Madhya Pradesh","7431","650496654258","2006-02-15 09:45:30","Satna",44,"India"
90,362,"482 Kowloon and New Kowloon Manor","","Bratislava","97056","738968474939","2006-02-15 09:45:30","Bratislava",84,"Slovakia"
429,363,"604 Bern Place","","Jharkhand","5373","620719383725","2006-02-15 09:45:30","Ranchi",44,"India"
20,364,"1623 Kingstown Drive","","Buenos Aires","91299","296394569728","2006-02-15 09:45:30","Almirante Brown",6,"Argentina"
32,365,"1009 Zanzibar Lane","","Arecibo","64875","102396298916","2006-02-15 09:45:30","Arecibo",77,"Puerto Rico"
585,366,"114 Jalib al-Shuyukh Manor","","Centre","60440","845378657301","2006-02-15 09:45:30","Yaound",19,"Cameroon"
66,367,"1163 London Parkway","","Par","6066","675120358494","2006-02-15 09:45:30","Belm",15,"Brazil"
372,368,"1658 Jastrzebie-Zdrj Loop","","Central","96584","568367775448","2006-02-15 09:45:30","Nyeri",52,"Kenya"
188,369,"817 Laredo Avenue","","Jalisco","77449","151249681135","2006-02-15 09:45:30","Guadalajara",60,"Mexico"
377,370,"1565 Tangail Manor","","Okinawa","45750","634445428822","2006-02-15 09:45:30","Okinawa",50,"Japan"
50,371,"1912 Emeishan Drive","","Balikesir","33050","99883471275","2006-02-15 09:45:30","Balikesir",97,"Turkey"
8,372,"230 Urawa Drive","","Andhra Pradesh","2738","166898395731","2006-02-15 09:45:30","Adoni",44,"India"
356,373,"1922 Miraj Way","","Esfahan","13203","320471479776","2006-02-15 09:45:30","Najafabad",46,"Iran"
250,374,"433 Florencia Street","","Chihuahua","91330","561729882725","2006-02-15 09:45:30","Jurez",60,"Mexico"
191,375,"1049 Matamoros Parkway","","Karnataka","69640","960505250340","2006-02-15 09:45:30","Gulbarga",44,"India"
98,376,"1061 Ede Avenue","","Southern Tagalog","57810","333390595558","2006-02-15 09:45:30","Cabuyao",75,"Philippines"
415,377,"154 Oshawa Manor","","East Java","72771","440365973660","2006-02-15 09:45:30","Probolinggo",45,"Indonesia"
523,378,"1191 Tandil Drive","","Southern Tagalog","6362","45554316010","2006-02-15 09:45:30","Tanauan",75,"Philippines"
572,379,"1133 Rizhao Avenue","","Pernambuco","2800","600264533987","2006-02-15 09:45:30","Vitria de Santo Anto",15,"Brazil"
348,380,"1519 Santiago de los Caballeros Loop","","East Kasai","22025","409315295763","2006-02-15 09:45:30","Mwene-Ditu",25,"Congo, The Democratic Republic of the"
285,381,"1618 Olomouc Manor","","Kurgan","26385","96846695220","2006-02-15 09:45:30","Kurgan",80,"Russian Federation"
265,382,"220 Hidalgo Drive","","Kermanshah","45298","342720754566","2006-02-15 09:45:30","Kermanshah",46,"Iran"
471,383,"686 Donostia-San Sebastin Lane","","Guangdong","97390","71857599858","2006-02-15 09:45:30","Shenzhen",23,"China"
73,384,"97 Mogiljov Lane","","Gujarat","89294","924815207181","2006-02-15 09:45:30","Bhavnagar",44,"India"
549,385,"1642 Charlotte Amalie Drive","","Slaskie","75442","821476736117","2006-02-15 09:45:30","Tychy",76,"Poland"
493,386,"1368 Maracabo Boulevard","","","32716","934352415130","2006-02-15 09:45:30","South Hill",5,"Anguilla"
322,387,"401 Sucre Boulevard","","New Hampshire","25007","486395999608","2006-02-15 09:45:30","Manchester",103,"United States"
360,388,"368 Hunuco Boulevard","","Namibe","17165","106439158941","2006-02-15 09:45:30","Namibe",4,"Angola"
210,389,"500 Lincoln Parkway","","Jiangsu","95509","550306965159","2006-02-15 09:45:30","Huaian",23,"China"
521,390,"102 Chapra Drive","","Ibaragi","14073","776031833752","2006-02-15 09:45:30","Tama",50,"Japan"
258,391,"1793 Meixian Place","","Hmelnytskyi","33535","619966287415","2006-02-15 09:45:30","Kamjanets-Podilskyi",100,"Ukraine"
315,392,"514 Ife Way","","Shaba","69973","900235712074","2006-02-15 09:45:30","Lubumbashi",25,"Congo, The Democratic Republic of the"
104,393,"717 Changzhou Lane","","Southern Tagalog","21615","426255288071","2006-02-15 09:45:30","Cavite",75,"Philippines"
157,394,"753 Ilorin Avenue","","Sichuan","3656","464511145118","2006-02-15 09:45:30","Emeishan",23,"China"
358,395,"1337 Mit Ghamr Avenue","","Nakhon Sawan","29810","175283210378","2006-02-15 09:45:30","Nakhon Sawan",94,"Thailand"
229,396,"767 Pyongyang Drive","","Osaka","83536","667736124769","2006-02-15 09:45:30","Izumisano",50,"Japan"
6,397,"614 Pak Kret Street","","Addis Abeba","27796","47808359842","2006-02-15 09:45:30","Addis Abeba",31,"Ethiopia"
278,398,"954 Lapu-Lapu Way","","Moskova","8816","737229003916","2006-02-15 09:45:30","Korolev",80,"Russian Federation"
181,399,"331 Bydgoszcz Parkway","","Asturia","966","537374465982","2006-02-15 09:45:30","Gijn",87,"Spain"
15,400,"1152 Citrus Heights Manor","","al-Qadarif","5239","765957414528","2006-02-15 09:45:30","al-Qadarif",89,"Sudan"
228,401,"168 Cianjur Manor","","Saitama","73824","679095087143","2006-02-15 09:45:30","Iwatsuki",50,"Japan"
39,402,"616 Hagonoy Avenue","","Krasnojarsk","46043","604177838256","2006-02-15 09:45:30","Atinsk",80,"Russian Federation"
44,403,"1190 0 Place","","Rio Grande do Sul","10417","841876514789","2006-02-15 09:45:30","Bag",15,"Brazil"
375,404,"734 Bchar Place","","Punjab","30586","280578750435","2006-02-15 09:45:30","Okara",72,"Pakistan"
135,405,"530 Lausanne Lane","","Texas","11067","775235029633","2006-02-15 09:45:30","Dallas",103,"United States"
276,406,"454 Patiala Lane","","Fukushima","13496","794553031307","2006-02-15 09:45:30","Koriyama",50,"Japan"
92,407,"1346 Mysore Drive","","Bretagne","61507","516647474029","2006-02-15 09:45:30","Brest",34,"France"
564,408,"990 Etawah Loop","","Tamil Nadu","79940","206169448769","2006-02-15 09:45:30","Valparai",44,"India"
380,409,"1266 Laredo Parkway","","Saitama","7664","1483365694","2006-02-15 09:45:30","Omiya",50,"Japan"
524,410,"88 Nagaon Manor","","Buenos Aires","86868","779461480495","2006-02-15 09:45:30","Tandil",6,"Argentina"
111,411,"264 Bhimavaram Manor","","St Thomas","54749","302526949177","2006-02-15 09:45:30","Charlotte Amalie",106,"Virgin Islands, U.S."
437,412,"1639 Saarbrcken Drive","","North West","9827","328494873422","2006-02-15 09:45:30","Rustenburg",85,"South Africa"
230,413,"692 Amroha Drive","","Northern","35575","359478883004","2006-02-15 09:45:30","Jaffna",88,"Sri Lanka"
141,414,"1936 Lapu-Lapu Parkway","","Bauchi & Gombe","7122","653436985797","2006-02-15 09:45:30","Deba Habe",69,"Nigeria"
430,415,"432 Garden Grove Street","","Ontario","65630","615964523510","2006-02-15 09:45:30","Richmond Hill",20,"Canada"
117,416,"1445 Carmen Parkway","","West Java","70809","598912394463","2006-02-15 09:45:30","Cianjur",45,"Indonesia"
208,417,"791 Salinas Street","","Punjab","40509","129953030512","2006-02-15 09:45:30","Hoshiarpur",44,"India"
71,418,"126 Acua Parkway","","West Bengali","58888","480039662421","2006-02-15 09:45:30","Berhampore (Baharampur)",44,"India"
19,419,"397 Sunnyvale Avenue","","Guanajuato","55566","680851640676","2006-02-15 09:45:30","Allende",60,"Mexico"
23,420,"992 Klerksdorp Loop","","Utrecht","33711","855290087237","2006-02-15 09:45:30","Amersfoort",67,"Netherlands"
134,421,"966 Arecibo Loop","","Sind","94018","15273765306","2006-02-15 09:45:30","Dadu",72,"Pakistan"
16,422,"289 Santo Andr Manor","","al-Sharqiya","72410","214976066017","2006-02-15 09:45:30","al-Qatif",82,"Saudi Arabia"
450,423,"437 Chungho Drive","","Puerto Plata","59489","491271355190","2006-02-15 09:45:30","San Felipe de Puerto Plata",27,"Dominican Republic"
264,424,"1948 Bayugan Parkway","","Bihar","60622","987306329957","2006-02-15 09:45:30","Katihar",44,"India"
155,425,"1866 al-Qatif Avenue","","California","89420","546793516940","2006-02-15 09:45:30","El Monte",103,"United States"
416,426,"1661 Abha Drive","","Tamil Nadu","14400","270456873752","2006-02-15 09:45:30","Pudukkottai",44,"India"
293,427,"1557 Cape Coral Parkway","","Hubei","46875","368284120423","2006-02-15 09:45:30","Laohekou",23,"China"
465,428,"1727 Matamoros Place","","Sawhaj","78813","129673677866","2006-02-15 09:45:30","Sawhaj",29,"Egypt"
468,429,"1269 Botosani Manor","","Guangdong","47394","736517327853","2006-02-15 09:45:30","Shanwei",23,"China"
452,430,"355 Vitria de Santo Anto Way","","Oaxaca","81758","548003849552","2006-02-15 09:45:30","San Juan Bautista Tuxtepec",60,"Mexico"
418,431,"1596 Acua Parkway","","Jharkhand","70425","157133457169","2006-02-15 09:45:30","Purnea (Purnia)",44,"India"
189,432,"259 Ipoh Drive","","So Paulo","64964","419009857119","2006-02-15 09:45:30","Guaruj",15,"Brazil"
510,433,"1823 Hoshiarpur Lane","","Komi","33191","307133768620","2006-02-15 09:45:30","Syktyvkar",80,"Russian Federation"
547,434,"1404 Taguig Drive","","Okayama","87212","572068624538","2006-02-15 09:45:30","Tsuyama",50,"Japan"
150,435,"740 Udaipur Lane","","Nizni Novgorod","33505","497288595103","2006-02-15 09:45:30","Dzerzinsk",80,"Russian Federation"
501,436,"287 Cuautla Boulevard","","Chuquisaca","72736","82619513349","2006-02-15 09:45:30","Sucre",14,"Bolivia"
364,437,"1766 Almirante Brown Street","","KwaZulu-Natal","63104","617567598243","2006-02-15 09:45:30","Newcastle",85,"South Africa"
351,438,"596 Huixquilucan Place","","Nampula","65892","342709348083","2006-02-15 09:45:30","Naala-Porto",63,"Mozambique"
391,439,"1351 Aparecida de Goinia Parkway","","Northern Mindanao","41775","959834530529","2006-02-15 09:45:30","Ozamis",75,"Philippines"
249,440,"722 Bradford Lane","","Shandong","90920","746251338300","2006-02-15 09:45:30","Junan",23,"China"
565,441,"983 Santa F Way","","British Colombia","47472","145720452260","2006-02-15 09:45:30","Vancouver",20,"Canada"
290,442,"1245 Ibirit Way","","La Romana","40926","331888642162","2006-02-15 09:45:30","La Romana",27,"Dominican Republic"
272,443,"1836 Korla Parkway","","Copperbelt","55405","689681677428","2006-02-15 09:45:30","Kitwe",109,"Zambia"
70,444,"231 Kaliningrad Place","","Lombardia","57833","575081026569","2006-02-15 09:45:30","Bergamo",49,"Italy"
144,445,"495 Bhimavaram Lane","","Maharashtra","3","82088937724","2006-02-15 09:45:30","Dhule (Dhulia)",44,"India"
59,446,"1924 Shimonoseki Drive","","Batna","52625","406784385440","2006-02-15 09:45:30","Batna",2,"Algeria"
540,447,"105 Dzerzinsk Manor","","Inner Mongolia","48570","240776414296","2006-02-15 09:45:30","Tongliao",23,"China"
486,448,"614 Denizli Parkway","","Rio Grande do Sul","29444","876491807547","2006-02-15 09:45:30","So Leopoldo",15,"Brazil"
530,449,"1289 Belm Boulevard","","Tartumaa","88306","237368926031","2006-02-15 09:45:30","Tartu",30,"Estonia"
161,450,"203 Tambaram Street","","Buenos Aires","73942","411549550611","2006-02-15 09:45:30","Escobar",6,"Argentina"
554,451,"1704 Tambaram Manor","","West Bengali","2834","39463554936","2006-02-15 09:45:30","Uluberia",44,"India"
352,452,"207 Cuernavaca Loop","","Tatarstan","52671","782900030287","2006-02-15 09:45:30","Nabereznyje Telny",80,"Russian Federation"
160,453,"319 Springs Loop","","Baijeri","99552","72524459905","2006-02-15 09:45:30","Erlangen",38,"Germany"
481,454,"956 Nam Dinh Manor","","Kerman","21872","474047727727","2006-02-15 09:45:30","Sirjan",46,"Iran"
509,455,"1947 Paarl Way","","Central Java","23636","834061016202","2006-02-15 09:45:30","Surakarta",45,"Indonesia"
154,456,"814 Simferopol Loop","","Sinaloa","48745","524567129902","2006-02-15 09:45:30","El Fuerte",60,"Mexico"
3,457,"535 Ahmadnagar Manor","","Abu Dhabi","41136","985109775584","2006-02-15 09:45:30","Abu Dhabi",101,"United Arab Emirates"
326,458,"138 Caracas Boulevard","","Zulia","16790","974433019532","2006-02-15 09:45:30","Maracabo",104,"Venezuela"
556,459,"251 Florencia Drive","","Michoacn de Ocampo","16119","118011831565","2006-02-15 09:45:30","Uruapan",60,"Mexico"
153,460,"659 Gatineau Boulevard","","La Paz","28587","205524798287","2006-02-15 09:45:30","El Alto",14,"Bolivia"
600,461,"1889 Valparai Way","","Ziguinchor","75559","670370974122","2006-02-15 09:45:30","Ziguinchor",83,"Senegal"
435,462,"1485 Bratislava Place","","Illinois","83183","924663855568","2006-02-15 09:45:30","Rockford",103,"United States"
532,463,"935 Aden Boulevard","","Central Java","64709","335052544020","2006-02-15 09:45:30","Tegal",45,"Indonesia"
423,464,"76 Kermanshah Manor","","Esfahan","23343","762361821578","2006-02-15 09:45:30","Qomsheh",46,"Iran"
170,465,"734 Tanshui Avenue","","Caquet","70664","366776723320","2006-02-15 09:45:30","Florencia",24,"Colombia"
182,466,"118 Jaffna Loop","","Northern Mindanao","10447","325526730021","2006-02-15 09:45:30","Gingoog",75,"Philippines"
558,467,"1621 Tongliao Avenue","","Irkutsk","22173","209342540247","2006-02-15 09:45:30","Usolje-Sibirskoje",80,"Russian Federation"
196,468,"1844 Usak Avenue","","Nova Scotia","84461","164414772677","2006-02-15 09:45:30","Halifax",20,"Canada"
428,469,"1872 Toulon Loop","","OHiggins","7939","928809465153","2006-02-15 09:45:30","Rancagua",22,"Chile"
595,470,"1088 Ibirit Place","","Jalisco","88502","49084281333","2006-02-15 09:45:30","Zapopan",60,"Mexico"
145,471,"1322 Mosul Parkway","","Shandong","95400","268053970382","2006-02-15 09:45:30","Dongying",23,"China"
129,472,"1447 Chatsworth Place","","Chihuahua","41545","769370126331","2006-02-15 09:45:30","Cuauhtmoc",60,"Mexico"
78,473,"1257 Guadalajara Street","","Karnataka","33599","195337700615","2006-02-15 09:45:30","Bijapur",44,"India"
388,474,"1469 Plock Lane","","Galicia","95835","622884741180","2006-02-15 09:45:30","Ourense (Orense)",87,"Spain"
206,475,"434 Ourense (Orense) Manor","","Hodeida","14122","562370137426","2006-02-15 09:45:30","Hodeida",107,"Yemen"
244,476,"270 Tambaram Parkway","","Gauteng","9668","248446668735","2006-02-15 09:45:30","Johannesburg",85,"South Africa"
359,477,"1786 Salinas Place","","Nam Ha","66546","206060652238","2006-02-15 09:45:30","Nam Dinh",105,"Vietnam"
301,478,"1078 Stara Zagora Drive","","Aceh","69221","932992626595","2006-02-15 09:45:30","Lhokseumawe",45,"Indonesia"
158,479,"1854 Okara Boulevard","","Drenthe","42123","131912793873","2006-02-15 09:45:30","Emmen",67,"Netherlands"
385,480,"421 Yaound Street","","Sumy","11363","726875628268","2006-02-15 09:45:30","ostka",100,"Ukraine"
179,481,"1153 Allende Way","","Qubec","20336","856872225376","2006-02-15 09:45:30","Gatineau",20,"Canada"
500,482,"808 Naala-Porto Parkway","","England","41060","553452430707","2006-02-15 09:45:30","Stockport",102,"United Kingdom"
36,483,"632 Usolje-Sibirskoje Parkway","","Ha Darom","73085","667648979883","2006-02-15 09:45:30","Ashqelon",48,"Israel"
11,484,"98 Pyongyang Boulevard","","Ohio","88749","191958435142","2006-02-15 09:45:30","Akron",103,"United States"
180,485,"984 Novoterkassk Loop","","Gaziantep","28165","435118527255","2006-02-15 09:45:30","Gaziantep",97,"Turkey"
347,486,"64 Korla Street","","Mwanza","25145","510383179153","2006-02-15 09:45:30","Mwanza",93,"Tanzania"
125,487,"1785 So Bernardo do Campo Street","","Veracruz","71182","684529463244","2006-02-15 09:45:30","Coatzacoalcos",60,"Mexico"
142,488,"698 Jelets Boulevard","","Denizli","2596","975185523021","2006-02-15 09:45:30","Denizli",97,"Turkey"
587,489,"1297 Alvorada Parkway","","Ningxia","11839","508348602835","2006-02-15 09:45:30","Yinchuan",23,"China"
469,490,"1909 Dayton Avenue","","Guangdong","88513","702955450528","2006-02-15 09:45:30","Shaoguan",23,"China"
4,491,"1789 Saint-Denis Parkway","","Coahuila de Zaragoza","8268","936806643983","2006-02-15 09:45:30","Acua",60,"Mexico"
408,492,"185 Mannheim Lane","","Stavropol","23661","589377568313","2006-02-15 09:45:30","Pjatigorsk",80,"Russian Federation"
288,493,"184 Mandaluyong Street","","Baja California Sur","94239","488425406814","2006-02-15 09:45:30","La Paz",60,"Mexico"
376,494,"591 Sungai Petani Drive","","Okayama","46400","37247325001","2006-02-15 09:45:30","Okayama",50,"Japan"
487,495,"656 Matamoros Drive","","Boyac","19489","17305839123","2006-02-15 09:45:30","Sogamoso",24,"Colombia"
337,496,"775 ostka Drive","","al-Daqahliya","22358","171973024401","2006-02-15 09:45:30","Mit Ghamr",29,"Egypt"
261,497,"1013 Tabuk Boulevard","","West Bengali","96203","158399646978","2006-02-15 09:45:30","Kanchrapara",44,"India"
504,498,"319 Plock Parkway","","Istanbul","26101","854259976812","2006-02-15 09:45:30","Sultanbeyli",97,"Turkey"
434,499,"1954 Kowloon and New Kowloon Way","","Chimborazo","63667","898559280434","2006-02-15 09:45:30","Robamba",28,"Ecuador"
47,500,"362 Rajkot Lane","","Gansu","98030","962020153680","2006-02-15 09:45:30","Baiyin",23,"China"
432,501,"1060 Tandil Lane","","Shandong","72349","211256301880","2006-02-15 09:45:30","Rizhao",23,"China"
589,502,"1515 Korla Way","","England","57197","959467760895","2006-02-15 09:45:30","York",102,"United Kingdom"
444,503,"1416 San Juan Bautista Tuxtepec Avenue","","Zufar","50592","144206758053","2006-02-15 09:45:30","Salala",71,"Oman"
93,504,"1 Valle de Santiago Avenue","","Apulia","86208","465897838272","2006-02-15 09:45:30","Brindisi",49,"Italy"
318,505,"519 Brescia Parkway","","East Java","69504","793996678771","2006-02-15 09:45:30","Madiun",45,"Indonesia"
314,506,"414 Mandaluyong Street","","Lubelskie","16370","52709222667","2006-02-15 09:45:30","Lublin",76,"Poland"
478,507,"1197 Sokoto Boulevard","","West Bengali","87687","868602816371","2006-02-15 09:45:30","Siliguri (Shiliguri)",44,"India"
552,508,"496 Celaya Drive","","Nagano","90797","759586584889","2006-02-15 09:45:30","Ueda",50,"Japan"
245,509,"786 Matsue Way","","Illinois","37469","111177206479","2006-02-15 09:45:30","Joliet",103,"United States"
519,510,"48 Maracabo Place","","Central Luzon","1570","82671830126","2006-02-15 09:45:30","Talavera",75,"Philippines"
412,511,"1152 al-Qatif Lane","","Kalimantan Barat","44816","131370665218","2006-02-15 09:45:30","Pontianak",45,"Indonesia"
163,512,"1269 Ipoh Avenue","","Eskisehir","54674","402630109080","2006-02-15 09:45:30","Eskisehir",97,"Turkey"
568,513,"758 Korolev Parkway","","Andhra Pradesh","75474","441628280920","2006-02-15 09:45:30","Vijayawada",44,"India"
110,514,"1747 Rustenburg Place","","Bihar","51369","442673923363","2006-02-15 09:45:30","Chapra",44,"India"
259,515,"886 Tonghae Place","","Volgograd","19450","711928348157","2006-02-15 09:45:30","Kamyin",80,"Russian Federation"
502,516,"1574 Goinia Boulevard","","Heilongjiang","39529","59634255214","2006-02-15 09:45:30","Suihua",23,"China"
312,517,"548 Uruapan Street","","Ontario","35653","879347453467","2006-02-15 09:45:30","London",102,"United Kingdom"
583,519,"962 Tama Loop","","","65952","282667506728","2006-02-15 09:45:30","Yangor",65,"Nauru"
594,520,"1778 Gijn Manor","","Hubei","35156","288910576761","2006-02-15 09:45:30","Zaoyang",23,"China"
127,521,"568 Dhule (Dhulia) Loop","","Coquimbo","92568","602101369463","2006-02-15 09:45:30","Coquimbo",22,"Chile"
60,522,"1768 Udine Loop","","Battambang","32347","448876499197","2006-02-15 09:45:30","Battambang",18,"Cambodia"
116,523,"608 Birgunj Parkway","","Taipei","400","627425618482","2006-02-15 09:45:30","Chungho",92,"Taiwan"
482,524,"680 A Corua (La Corua) Manor","","Sivas","49806","158326114853","2006-02-15 09:45:30","Sivas",97,"Turkey"
224,525,"1949 Sanya Street","","Gumma","61244","132100972047","2006-02-15 09:45:30","Isesaki",50,"Japan"
366,526,"617 Klerksdorp Place","","Khanh Hoa","94707","574973479129","2006-02-15 09:45:30","Nha Trang",105,"Vietnam"
588,527,"1993 0 Loop","","Liaoning","41214","25865528181","2006-02-15 09:45:30","Yingkou",23,"China"
458,528,"1176 Southend-on-Sea Manor","","Southern Tagalog","81651","236679267178","2006-02-15 09:45:30","Santa Rosa",75,"Philippines"
571,529,"600 Purnea (Purnia) Avenue","","Nghe An","18043","638409958875","2006-02-15 09:45:30","Vinh",105,"Vietnam"
419,530,"1003 Qinhuangdao Street","","West Java","25972","35533115997","2006-02-15 09:45:30","Purwakarta",45,"Indonesia"
551,531,"1986 Sivas Place","","Friuli-Venezia Giuli","95775","182059202712","2006-02-15 09:45:30","Udine",49,"Italy"
101,532,"1427 Tabuk Place","","Florida","31342","214756839122","2006-02-15 09:45:30","Cape Coral",103,"United States"
339,533,"556 Asuncin Way","","Mogiljov","35364","338244023543","2006-02-15 09:45:30","Mogiljov",13,"Belarus"
67,534,"486 Ondo Parkway","","Benguela","35202","105882218332","2006-02-15 09:45:30","Benguela",4,"Angola"
75,535,"635 Brest Manor","","Andhra Pradesh","40899","80593242951","2006-02-15 09:45:30","Bhimavaram",44,"India"
165,536,"166 Jinchang Street","","Buenos Aires","86760","717566026669","2006-02-15 09:45:30","Ezeiza",6,"Argentina"
287,537,"958 Sagamihara Lane","","Mie","88408","427274926505","2006-02-15 09:45:30","Kuwana",50,"Japan"
100,538,"1817 Livorno Way","","Khanh Hoa","79401","478380208348","2006-02-15 09:45:30","Cam Ranh",105,"Vietnam"
80,539,"1332 Gaziantep Lane","","Shandong","22813","383353187467","2006-02-15 09:45:30","Binzhou",23,"China"
24,540,"949 Allende Lane","","Uttar Pradesh","67521","122981120653","2006-02-15 09:45:30","Amroha",44,"India"
363,541,"195 Ilorin Street","","Chari-Baguirmi","49250","8912935608","2006-02-15 09:45:30","NDjamna",21,"Chad"
539,542,"193 Bhusawal Place","","Kang-won","9750","745267607502","2006-02-15 09:45:30","Tonghae",86,"South Korea"
42,543,"43 Vilnius Manor","","Colorado","79814","484500282381","2006-02-15 09:45:30","Aurora",103,"United States"
46,544,"183 Haiphong Street","","Jilin","69953","488600270038","2006-02-15 09:45:30","Baicheng",23,"China"
561,545,"163 Augusta-Richmond County Loop","","Carabobo","33030","754579047924","2006-02-15 09:45:30","Valencia",104,"Venezuela"
436,546,"191 Jos Azueta Parkway","","Ruse","13629","932156667696","2006-02-15 09:45:30","Ruse",17,"Bulgaria"
309,547,"379 Lublin Parkway","","Toscana","74568","921960450089","2006-02-15 09:45:30","Livorno",49,"Italy"
396,548,"1658 Cuman Loop","","Sumatera Selatan","51309","784907335610","2006-02-15 09:45:30","Pangkal Pinang",45,"Indonesia"
68,549,"454 Qinhuangdao Drive","","Tadla-Azilal","25866","786270036240","2006-02-15 09:45:30","Beni-Mellal",62,"Morocco"
485,550,"1715 Okayama Street","","So Paulo","55676","169352919175","2006-02-15 09:45:30","So Bernardo do Campo",15,"Brazil"
275,551,"182 Nukualofa Drive","","Sumy","15414","426346224043","2006-02-15 09:45:30","Konotop",100,"Ukraine"
462,552,"390 Wroclaw Way","","Hainan","5753","357593328658","2006-02-15 09:45:30","Sanya",23,"China"
260,553,"1421 Quilmes Lane","","Ishikawa","19151","135407755975","2006-02-15 09:45:30","Kanazawa",50,"Japan"
528,554,"947 Trshavn Place","","Central Luzon","841","50898428626","2006-02-15 09:45:30","Tarlac",75,"Philippines"
459,555,"1764 Jalib al-Shuyukh Parkway","","Galicia","77642","84794532510","2006-02-15 09:45:30","Santiago de Compostela",87,"Spain"
599,556,"346 Cam Ranh Avenue","","Zhejiang","39976","978430786151","2006-02-15 09:45:30","Zhoushan",23,"China"
21,557,"1407 Pachuca de Soto Place","","Rio Grande do Sul","26284","380077794770","2006-02-15 09:45:30","Alvorada",15,"Brazil"
193,558,"904 Clarksville Drive","","Zhejiang","52234","955349440539","2006-02-15 09:45:30","Haining",23,"China"
368,559,"1917 Kumbakonam Parkway","","Vojvodina","11892","698182547686","2006-02-15 09:45:30","Novi Sad",108,"Yugoslavia"
426,560,"1447 Imus Place","","Gujarat","12905","62127829280","2006-02-15 09:45:30","Rajkot",44,"India"
112,561,"1497 Fengshan Drive","","KwaZulu-Natal","63022","368738360376","2006-02-15 09:45:30","Chatsworth",85,"South Africa"
496,562,"869 Shikarpur Way","","England","57380","590764256785","2006-02-15 09:45:30","Southport",102,"United Kingdom"
570,563,"1059 Yuncheng Avenue","","Vilna","47498","107092893983","2006-02-15 09:45:30","Vilnius",56,"Lithuania"
577,564,"505 Madiun Boulevard","","Dolnoslaskie","97271","970638808606","2006-02-15 09:45:30","Wroclaw",76,"Poland"
79,565,"1741 Hoshiarpur Boulevard","","al-Sharqiya","22372","855066328617","2006-02-15 09:45:30","Bilbays",29,"Egypt"
43,566,"1229 Varanasi (Benares) Manor","","Buenos Aires","40195","817740355461","2006-02-15 09:45:30","Avellaneda",6,"Argentina"
178,567,"1894 Boa Vista Way","","Texas","77464","239357986667","2006-02-15 09:45:30","Garland",103,"United States"
488,568,"1342 Sharja Way","","Sokoto & Kebbi & Zam","93655","946114054231","2006-02-15 09:45:30","Sokoto",69,"Nigeria"
95,569,"1342 Abha Boulevard","","Bukarest","10714","997453607116","2006-02-15 09:45:30","Bucuresti",78,"Romania"
580,570,"415 Pune Avenue","","Shandong","44274","203202500108","2006-02-15 09:45:30","Xintai",23,"China"
214,571,"1746 Faaa Way","","Huanuco","32515","863080561151","2006-02-15 09:45:30","Hunuco",74,"Peru"
538,572,"539 Hami Way","","Tokat","52196","525518075499","2006-02-15 09:45:30","Tokat",97,"Turkey"
466,573,"1407 Surakarta Manor","","Moskova","33224","324346485054","2006-02-15 09:45:30","Serpuhov",80,"Russian Federation"
55,574,"502 Mandi Bahauddin Parkway","","Anzotegui","15992","618156722572","2006-02-15 09:45:30","Barcelona",104,"Venezuela"
299,575,"1052 Pathankot Avenue","","Sichuan","77397","128499386727","2006-02-15 09:45:30","Leshan",23,"China"
341,576,"1351 Sousse Lane","","Coahuila de Zaragoza","37815","203804046132","2006-02-15 09:45:30","Monclova",60,"Mexico"
409,577,"1501 Pangkal Pinang Avenue","","Mazowieckie","943","770864062795","2006-02-15 09:45:30","Plock",76,"Poland"
133,578,"1405 Hagonoy Avenue","","Slaskie","86587","867287719310","2006-02-15 09:45:30","Czestochowa",76,"Poland"
598,579,"521 San Juan Bautista Tuxtepec Place","","Qaraghandy","95093","844018348565","2006-02-15 09:45:30","Zhezqazghan",51,"Kazakstan"
10,580,"923 Tangail Boulevard","","Tokyo-to","33384","315528269898","2006-02-15 09:45:30","Akishima",50,"Japan"
131,581,"186 Skikda Lane","","Morelos","89422","14465669789","2006-02-15 09:45:30","Cuernavaca",60,"Mexico"
168,582,"1568 Celaya Parkway","","Kaohsiung","34750","278669994384","2006-02-15 09:45:30","Fengshan",92,"Taiwan"
526,583,"1489 Kakamigahara Lane","","Taipei","98883","29341849811","2006-02-15 09:45:30","Tanshui",92,"Taiwan"
103,584,"1819 Alessandria Loop","","Campeche","53829","377633994405","2006-02-15 09:45:30","Carmen",60,"Mexico"
344,585,"1208 Tama Loop","","Ninawa","73605","954786054144","2006-02-15 09:45:30","Mosul",47,"Iraq"
219,586,"951 Springs Lane","","Central Mindanao","96115","165164761435","2006-02-15 09:45:30","Iligan",75,"Philippines"
246,587,"760 Miyakonojo Drive","","Guerrero","64682","294449058179","2006-02-15 09:45:30","Jos Azueta",60,"Mexico"
212,588,"966 Asuncin Way","","Hidalgo","62703","995527378381","2006-02-15 09:45:30","Huejutla de Reyes",60,"Mexico"
494,589,"1584 Ljubertsy Lane","","England","22954","285710089439","2006-02-15 09:45:30","Southampton",102,"United Kingdom"
54,590,"247 Jining Parkway","","Banjul","53446","170115379190","2006-02-15 09:45:30","Banjul",37,"Gambia"
424,591,"773 Dallas Manor","","Buenos Aires","12664","914466027044","2006-02-15 09:45:30","Quilmes",6,"Argentina"
546,592,"1923 Stara Zagora Lane","","Nantou","95179","182178609211","2006-02-15 09:45:30","Tsaotun",92,"Taiwan"
106,593,"1402 Zanzibar Boulevard","","Guanajuato","71102","387448063440","2006-02-15 09:45:30","Celaya",60,"Mexico"
574,594,"1464 Kursk Parkway","","Shandong","17381","338758048786","2006-02-15 09:45:30","Weifang",23,"China"
311,595,"1074 Sanaa Parkway","","Loja","22474","154124128457","2006-02-15 09:45:30","Loja",28,"Ecuador"
14,596,"1759 Niznekamsk Avenue","","al-Manama","39414","864392582257","2006-02-15 09:45:30","al-Manama",11,"Bahrain"
248,597,"32 Liaocheng Way","","Minas Gerais","1944","410877354933","2006-02-15 09:45:30","Juiz de Fora",15,"Brazil"
512,598,"42 Fontana Avenue","","Fejr","14684","437829801725","2006-02-15 09:45:30","Szkesfehrvr",43,"Hungary"
177,599,"1895 Zhezqazghan Drive","","California","36693","137809746111","2006-02-15 09:45:30","Garden Grove",103,"United States"
241,600,"1837 Kaduna Parkway","","Inner Mongolia","82580","640843562301","2006-02-15 09:45:30","Jining",23,"China"
242,601,"844 Bucuresti Place","","Liaoning","36603","935952366111","2006-02-15 09:45:30","Jinzhou",23,"China"
401,602,"1101 Bucuresti Boulevard","","West Greece","97661","199514580428","2006-02-15 09:45:30","Patras",39,"Greece"
503,603,"1103 Quilmes Boulevard","","Piura","52137","644021380889","2006-02-15 09:45:30","Sullana",74,"Peru"
296,604,"1331 Usak Boulevard","","Vaud","61960","145308717464","2006-02-15 09:45:30","Lausanne",91,"Switzerland"
537,605,"1325 Fukuyama Street","","Heilongjiang","27107","288241215394","2006-02-15 09:45:30","Tieli",23,"China"
